CCSDS_OMM_VERS = 2.0
CREATION_DATE  = 
ORIGINATOR     = 

OBJECT_NAME    = DELTA 1 R/B
OBJECT_ID      = 1989-089B
CENTER_NAME    = EARTH
REF_FRAME      = TEME
TIME_SYSTEM    = UTC
MEAN_ELEMENT_THEORY = SGP/SGP4

EPOCH          = 2025-11-04T03:33:26.199360
MEAN_MOTION    = 14.50522528
ECCENTRICITY   = .0069727
INCLINATION    = 97.0793
RA_OF_ASC_NODE = 170.4954
ARG_OF_PERICENTER = 158.1248
MEAN_ANOMALY   = 202.2952

EPHEMERIS_TYPE = 0
CLASSIFICATION_TYPE = U
NORAD_CAT_ID   = 20323
ELEMENT_SET_NO = 999
REV_AT_EPOCH   = 87753
BSTAR          = .11231E-3
MEAN_MOTION_DOT = .418E-5
MEAN_MOTION_DDOT = 0

CCSDS_OMM_VERS = 2.0
CREATION_DATE  = 
ORIGINATOR     = 

OBJECT_NAME    = ARIANE 40 R/B
OBJECT_ID      = 1990-005H
CENTER_NAME    = EARTH
REF_FRAME      = TEME
TIME_SYSTEM    = UTC
MEAN_ELEMENT_THEORY = SGP/SGP4

EPOCH          = 2025-11-04T04:03:35.316864
MEAN_MOTION    = 14.39751926
ECCENTRICITY   = .0009446
INCLINATION    = 98.3297
RA_OF_ASC_NODE = 7.4275
ARG_OF_PERICENTER = 216.7985
MEAN_ANOMALY   = 143.2556

EPHEMERIS_TYPE = 0
CLASSIFICATION_TYPE = U
NORAD_CAT_ID   = 20443
ELEMENT_SET_NO = 999
REV_AT_EPOCH   = 87474
BSTAR          = .13503E-3
MEAN_MOTION_DOT = .381E-5
MEAN_MOTION_DDOT = 0

CCSDS_OMM_VERS = 2.0
CREATION_DATE  = 
ORIGINATOR     = 

OBJECT_NAME    = DELTA 2 R/B(1)
OBJECT_ID      = 1990-008B
CENTER_NAME    = EARTH
REF_FRAME      = TEME
TIME_SYSTEM    = UTC
MEAN_ELEMENT_THEORY = SGP/SGP4

EPOCH          = 2025-11-04T04:44:44.623680
MEAN_MOTION    = 15.41651661
ECCENTRICITY   = .0118485
INCLINATION    = 35.6081
RA_OF_ASC_NODE = 268.7440
ARG_OF_PERICENTER = 188.2060
MEAN_ANOMALY   = 171.6731

EPHEMERIS_TYPE = 0
CLASSIFICATION_TYPE = U
NORAD_CAT_ID   = 20453
ELEMENT_SET_NO = 999
REV_AT_EPOCH   = 90667
BSTAR          = .67479E-3
MEAN_MOTION_DOT = .37996E-3
MEAN_MOTION_DDOT = 0

CCSDS_OMM_VERS = 2.0
CREATION_DATE  = 
ORIGINATOR     = 

OBJECT_NAME    = COSMOS 2058
OBJECT_ID      = 1990-010A
CENTER_NAME    = EARTH
REF_FRAME      = TEME
TIME_SYSTEM    = UTC
MEAN_ELEMENT_THEORY = SGP/SGP4

EPOCH          = 2025-11-04T03:07:42.635712
MEAN_MOTION    = 15.10030764
ECCENTRICITY   = .0011535
INCLINATION    = 82.4682
RA_OF_ASC_NODE = 171.0092
ARG_OF_PERICENTER = 47.7983
MEAN_ANOMALY   = 312.4223

EPHEMERIS_TYPE = 0
CLASSIFICATION_TYPE = U
NORAD_CAT_ID   = 20465
ELEMENT_SET_NO = 999
REV_AT_EPOCH   = 92328
BSTAR          = .23351E-3
MEAN_MOTION_DOT = .3829E-4
MEAN_MOTION_DDOT = 0

CCSDS_OMM_VERS = 2.0
CREATION_DATE  = 
ORIGINATOR     = 

OBJECT_NAME    = SL-14 R/B
OBJECT_ID      = 1990-010B
CENTER_NAME    = EARTH
REF_FRAME      = TEME
TIME_SYSTEM    = UTC
MEAN_ELEMENT_THEORY = SGP/SGP4

EPOCH          = 2025-11-04T03:54:23.410944
MEAN_MOTION    = 14.83416977
ECCENTRICITY   = .0019704
INCLINATION    = 82.5051
RA_OF_ASC_NODE = 25.2706
ARG_OF_PERICENTER = 358.1055
MEAN_ANOMALY   = 2.0082

EPHEMERIS_TYPE = 0
CLASSIFICATION_TYPE = U
NORAD_CAT_ID   = 20466
ELEMENT_SET_NO = 999
REV_AT_EPOCH   = 90987
BSTAR          = .65911E-4
MEAN_MOTION_DOT = .566E-5
MEAN_MOTION_DDOT = 0

CCSDS_OMM_VERS = 2.0
CREATION_DATE  = 
ORIGINATOR     = 

OBJECT_NAME    = SL-14 R/B
OBJECT_ID      = 1990-018B
CENTER_NAME    = EARTH
REF_FRAME      = TEME
TIME_SYSTEM    = UTC
MEAN_ELEMENT_THEORY = SGP/SGP4

EPOCH          = 2025-11-04T03:03:25.353792
MEAN_MOTION    = 14.81991087
ECCENTRICITY   = .0017397
INCLINATION    = 82.5215
RA_OF_ASC_NODE = 340.4583
ARG_OF_PERICENTER = 141.2443
MEAN_ANOMALY   = 219.0023

EPHEMERIS_TYPE = 0
CLASSIFICATION_TYPE = U
NORAD_CAT_ID   = 20511
ELEMENT_SET_NO = 999
REV_AT_EPOCH   = 90398
BSTAR          = .5902E-4
MEAN_MOTION_DOT = .493E-5
MEAN_MOTION_DDOT = 0

CCSDS_OMM_VERS = 2.0
CREATION_DATE  = 
ORIGINATOR     = 

OBJECT_NAME    = HST
OBJECT_ID      = 1990-037B
CENTER_NAME    = EARTH
REF_FRAME      = TEME
TIME_SYSTEM    = UTC
MEAN_ELEMENT_THEORY = SGP/SGP4

EPOCH          = 2025-11-03T23:41:54.969792
MEAN_MOTION    = 15.27300295
ECCENTRICITY   = .0001844
INCLINATION    = 28.4664
RA_OF_ASC_NODE = 176.1122
ARG_OF_PERICENTER = 152.3920
MEAN_ANOMALY   = 207.6773

EPHEMERIS_TYPE = 0
CLASSIFICATION_TYPE = U
NORAD_CAT_ID   = 20580
ELEMENT_SET_NO = 999
REV_AT_EPOCH   = 75406
BSTAR          = .26478E-3
MEAN_MOTION_DOT = .751E-4
MEAN_MOTION_DDOT = 0

CCSDS_OMM_VERS = 2.0
CREATION_DATE  = 
ORIGINATOR     = 

OBJECT_NAME    = SL-16 R/B
OBJECT_ID      = 1990-046B
CENTER_NAME    = EARTH
REF_FRAME      = TEME
TIME_SYSTEM    = UTC
MEAN_ELEMENT_THEORY = SGP/SGP4

EPOCH          = 2025-11-04T03:32:37.231296
MEAN_MOTION    = 14.14992393
ECCENTRICITY   = .001252
INCLINATION    = 70.9992
RA_OF_ASC_NODE = 201.5668
ARG_OF_PERICENTER = 142.9460
MEAN_ANOMALY   = 217.2530

EPHEMERIS_TYPE = 0
CLASSIFICATION_TYPE = U
NORAD_CAT_ID   = 20625
ELEMENT_SET_NO = 999
REV_AT_EPOCH   = 83063
BSTAR          = -.24958E-4
MEAN_MOTION_DOT = -.96E-6
MEAN_MOTION_DDOT = 0

CCSDS_OMM_VERS = 2.0
CREATION_DATE  = 
ORIGINATOR     = 

OBJECT_NAME    = COSMOS 2084
OBJECT_ID      = 1990-055A
CENTER_NAME    = EARTH
REF_FRAME      = TEME
TIME_SYSTEM    = UTC
MEAN_ELEMENT_THEORY = SGP/SGP4

EPOCH          = 2025-11-03T16:40:22.575072
MEAN_MOTION    = 15.04657736
ECCENTRICITY   = .00382372
INCLINATION    = 62.7919
RA_OF_ASC_NODE = 44.9977
ARG_OF_PERICENTER = 170.0352
MEAN_ANOMALY   = 190.1515

EPHEMERIS_TYPE = 0
CLASSIFICATION_TYPE = U
NORAD_CAT_ID   = 20663
ELEMENT_SET_NO = 999
REV_AT_EPOCH   = 91735
BSTAR          = .28655551E-3
MEAN_MOTION_DOT = .3909E-4
MEAN_MOTION_DDOT = 0

CCSDS_OMM_VERS = 2.0
CREATION_DATE  = 
ORIGINATOR     = 

OBJECT_NAME    = SL-6 R/B(2)
OBJECT_ID      = 1990-055D
CENTER_NAME    = EARTH
REF_FRAME      = TEME
TIME_SYSTEM    = UTC
MEAN_ELEMENT_THEORY = SGP/SGP4

EPOCH          = 2025-11-04T02:39:42.109920
MEAN_MOTION    = 15.02783849
ECCENTRICITY   = .0010653
INCLINATION    = 62.7836
RA_OF_ASC_NODE = 320.6429
ARG_OF_PERICENTER = 274.0913
MEAN_ANOMALY   = 85.8968

EPHEMERIS_TYPE = 0
CLASSIFICATION_TYPE = U
NORAD_CAT_ID   = 20666
ELEMENT_SET_NO = 999
REV_AT_EPOCH   = 91931
BSTAR          = .21189E-3
MEAN_MOTION_DOT = .2656E-4
MEAN_MOTION_DDOT = 0

CCSDS_OMM_VERS = 2.0
CREATION_DATE  = 
ORIGINATOR     = 

OBJECT_NAME    = SL-8 R/B
OBJECT_ID      = 1990-078B
CENTER_NAME    = EARTH
REF_FRAME      = TEME
TIME_SYSTEM    = UTC
MEAN_ELEMENT_THEORY = SGP/SGP4

EPOCH          = 2025-11-04T02:50:09.195072
MEAN_MOTION    = 14.83908541
ECCENTRICITY   = .0382785
INCLINATION    = 82.9088
RA_OF_ASC_NODE = 3.8125
ARG_OF_PERICENTER = 74.9703
MEAN_ANOMALY   = 289.3536

EPHEMERIS_TYPE = 0
CLASSIFICATION_TYPE = U
NORAD_CAT_ID   = 20775
ELEMENT_SET_NO = 999
REV_AT_EPOCH   = 79064
BSTAR          = .50004E-3
MEAN_MOTION_DOT = .162E-3
MEAN_MOTION_DDOT = 0

CCSDS_OMM_VERS = 2.0
CREATION_DATE  = 
ORIGINATOR     = 

OBJECT_NAME    = SL-8 R/B
OBJECT_ID      = 1991-006B
CENTER_NAME    = EARTH
REF_FRAME      = TEME
TIME_SYSTEM    = UTC
MEAN_ELEMENT_THEORY = SGP/SGP4

EPOCH          = 2025-11-04T04:05:19.498848
MEAN_MOTION    = 13.77481337
ECCENTRICITY   = .0023321
INCLINATION    = 82.9401
RA_OF_ASC_NODE = 263.4037
ARG_OF_PERICENTER = 30.0489
MEAN_ANOMALY   = 340.6252

EPHEMERIS_TYPE = 0
CLASSIFICATION_TYPE = U
NORAD_CAT_ID   = 21088
ELEMENT_SET_NO = 999
REV_AT_EPOCH   = 74679
BSTAR          = .11291E-3
MEAN_MOTION_DOT = .128E-5
MEAN_MOTION_DDOT = 0

