DELTA 1 R/B             
1 20323U 89089B   25308.14821990  .00000418  00000+0  11231-3 0  9999
2 20323  97.0793 170.4954 0069727 158.1248 202.2952 14.50522528877533
ARIANE 40 R/B           
1 20443U 90005H   25308.16915876  .00000381  00000+0  13503-3 0  9994
2 20443  98.3297   7.4275 0009446 216.7985 143.2556 14.39751926874742
DELTA 2 R/B(1)          
1 20453U 90008B   25308.19773870  .00037996  00000+0  67479-3 0  9990
2 20453  35.6081 268.7440 0118485 188.2060 171.6731 15.41651661906672
COSMOS 2058             
1 20465U 90010A   25308.13035458  .00003829  00000+0  23351-3 0  9992
2 20465  82.4682 171.0092 0011535  47.7983 312.4223 15.10030764923280
SL-14 R/B               
1 20466U 90010B   25308.16277096  .00000566  00000+0  65911-4 0  9996
2 20466  82.5051  25.2706 0019704 358.1055   2.0082 14.83416977909876
SL-14 R/B               
1 20511U 90018B   25308.12737678  .00000493  00000+0  59020-4 0  9991
2 20511  82.5215 340.4583 0017397 141.2443 219.0023 14.81991087903981
HST                     
1 20580U 90037B   25307.98744178  .00007510  00000+0  26478-3 0  9991
2 20580  28.4664 176.1122 0001844 152.3920 207.6773 15.27300295754064
SL-16 R/B               
1 20625U 90046B   25308.14765314 -.00000096  00000+0 -24958-4 0  9991
2 20625  70.9992 201.5668 0012520 142.9460 217.2530 14.14992393830632
COSMOS 2084             
1 20663U 90055A   25307.69470573  .00003909  00000+0  28656-3 0  9994
2 20663  62.7919  44.9977 0038237 170.0352 190.1515 15.04657736917355
SL-6 R/B(2)             
1 20666U 90055D   25308.11090405  .00002656  00000+0  21189-3 0  9999
2 20666  62.7836 320.6429 0010653 274.0913  85.8968 15.02783849919315
SL-8 R/B                
1 20775U 90078B   25308.11816198  .00016200  00000+0  50004-3 0  9998
2 20775  82.9088   3.8125 0382785  74.9703 289.3536 14.83908541790645
SL-8 R/B                
1 21088U 91006B   25308.17036457  .00000128  00000+0  11291-3 0  9993
2 21088  82.9401 263.4037 0023321  30.0489 340.6252 13.77481337746794
